STARLINK-6099           
1 57108U 23090H   26067.97972665 -.00000613  00000+0 -30303-4 0  9991
2 57108  43.0031 278.7605 0000916 257.9741 102.0999 15.02526592150306
SEDNA-1                 
1 60580U 24149DS  26068.76583836  .00008721  00000+0  60834-3 0  9998
2 60580  97.6673 149.7617 0008344 330.8481  29.2278 15.05597965 85421
