[{"OBJECT_NAME":"STARLINK-6099","OBJECT_ID":"2023-090H","EPOCH":"2026-03-08T23:30:48.382560","MEAN_MOTION":15.02526592,"ECCENTRICITY":9.167e-5,"INCLINATION":43.0031,"RA_OF_ASC_NODE":278.7605,"ARG_OF_PERICENTER":257.9741,"MEAN_ANOMALY":102.0999,"EPHEMERIS_TYPE":0,"CLASSIFICATION_TYPE":"U","NORAD_CAT_ID":57108,"ELEMENT_SET_NO":999,"REV_AT_EPOCH":15030,"BSTAR":-3.03032e-5,"MEAN_MOTION_DOT":-6.13e-6,"MEAN_MOTION_DDOT":0},{"OBJECT_NAME":"SEDNA-1","OBJECT_ID":"2024-149DS","EPOCH":"2026-03-09T18:22:48.434304","MEAN_MOTION":15.05597965,"ECCENTRICITY":0.00083444,"INCLINATION":97.6673,"RA_OF_ASC_NODE":149.7617,"ARG_OF_PERICENTER":330.8481,"MEAN_ANOMALY":29.2278,"EPHEMERIS_TYPE":0,"CLASSIFICATION_TYPE":"U","NORAD_CAT_ID":60580,"ELEMENT_SET_NO":999,"REV_AT_EPOCH":8542,"BSTAR":0.00060833619,"MEAN_MOTION_DOT":8.721e-5,"MEAN_MOTION_DDOT":0}]
